[{"OBJECT_NAME":"ONEWEB-0720","OBJECT_ID":"2023-029AR","EPOCH":"2025-12-29T08:52:24.517344","MEAN_MOTION":13.19726151,"ECCENTRICITY":0.0001783,"INCLINATION":87.92,"RA_OF_ASC_NODE":338.774,"ARG_OF_PERICENTER":72.1957,"MEAN_ANOMALY":287.937,"EPHEMERIS_TYPE":0,"CLASSIFICATION_TYPE":"U","NORAD_CAT_ID":55835,"ELEMENT_SET_NO":999,"REV_AT_EPOCH":13644,"BSTAR":0.00031393,"MEAN_MOTION_DOT":1.39e-6,"MEAN_MOTION_DDOT":0},{"OBJECT_NAME":"ONEWEB-0537","OBJECT_ID":"2023-043A","EPOCH":"2025-12-29T06:22:09.969024","MEAN_MOTION":13.16593319,"ECCENTRICITY":0.0001408,"INCLINATION":87.9041,"RA_OF_ASC_NODE":262.6057,"ARG_OF_PERICENTER":81.7746,"MEAN_ANOMALY":278.3545,"EPHEMERIS_TYPE":0,"CLASSIFICATION_TYPE":"U","NORAD_CAT_ID":56046,"ELEMENT_SET_NO":999,"REV_AT_EPOCH":13660,"BSTAR":0.00015309,"MEAN_MOTION_DOT":7.1e-7,"MEAN_MOTION_DDOT":0},{"OBJECT_NAME":"ONEWEB-0538","OBJECT_ID":"2023-043B","EPOCH":"2025-12-29T06:13:02.021952","MEAN_MOTION":13.16592352,"ECCENTRICITY":0.0001335,"INCLINATION":87.9044,"RA_OF_ASC_NODE":262.6102,"ARG_OF_PERICENTER":68.5433,"MEAN_ANOMALY":291.584,"EPHEMERIS_TYPE":0,"CLASSIFICATION_TYPE":"U","NORAD_CAT_ID":56047,"ELEMENT_SET_NO":999,"REV_AT_EPOCH":13661,"BSTAR":0.0001421,"MEAN_MOTION_DOT":6.7e-7,"MEAN_MOTION_DDOT":0},{"OBJECT_NAME":"ONEWEB-0546","OBJECT_ID":"2023-043C","EPOCH":"2025-12-29T02:15:55.712448","MEAN_MOTION":13.1659246,"ECCENTRICITY":0.00013732,"INCLINATION":87.9054,"RA_OF_ASC_NODE":262.6365,"ARG_OF_PERICENTER":100.5697,"MEAN_ANOMALY":259.5589,"EPHEMERIS_TYPE":0,"CLASSIFICATION_TYPE":"U","NORAD_CAT_ID":56048,"ELEMENT_SET_NO":999,"REV_AT_EPOCH":13658,"BSTAR":-1.3355646e-5,"MEAN_MOTION_DOT":8.0e-8,"MEAN_MOTION_DDOT":0},{"OBJECT_NAME":"ONEWEB-0547","OBJECT_ID":"2023-043D","EPOCH":"2025-12-29T03:49:04.232064","MEAN_MOTION":13.21827485,"ECCENTRICITY":0.00016334,"INCLINATION":87.9231,"RA_OF_ASC_NODE":277.8875,"ARG_OF_PERICENTER":69.8254,"MEAN_ANOMALY":290.3055,"EPHEMERIS_TYPE":0,"CLASSIFICATION_TYPE":"U","NORAD_CAT_ID":56049,"ELEMENT_SET_NO":999,"REV_AT_EPOCH":13576,"BSTAR":8.9705694e-5,"MEAN_MOTION_DOT":5.0e-7,"MEAN_MOTION_DDOT":0},{"OBJECT_NAME":"ONEWEB-0548","OBJECT_ID":"2023-043E","EPOCH":"2025-12-29T04:40:41.856096","MEAN_MOTION":13.16595557,"ECCENTRICITY":0.0002086,"INCLINATION":87.9039,"RA_OF_ASC_NODE":262.6209,"ARG_OF_PERICENTER":76.9614,"MEAN_ANOMALY":283.175,"EPHEMERIS_TYPE":0,"CLASSIFICATION_TYPE":"U","NORAD_CAT_ID":56050,"ELEMENT_SET_NO":999,"REV_AT_EPOCH":13659,"BSTAR":9.166e-5,"MEAN_MOTION_DOT":4.8e-7,"MEAN_MOTION_DDOT":0},{"OBJECT_NAME":"ONEWEB-0549","OBJECT_ID":"2023-043F","EPOCH":"2025-12-29T07:16:24.249216","MEAN_MOTION":13.21827348,"ECCENTRICITY":0.0001555,"INCLINATION":87.9224,"RA_OF_ASC_NODE":277.8724,"ARG_OF_PERICENTER":66.8594,"MEAN_ANOMALY":293.2704,"EPHEMERIS_TYPE":0,"CLASSIFICATION_TYPE":"U","NORAD_CAT_ID":56051,"ELEMENT_SET_NO":999,"REV_AT_EPOCH":13578,"BSTAR":1.0942e-5,"MEAN_MOTION_DOT":1.8e-7,"MEAN_MOTION_DDOT":0},{"OBJECT_NAME":"ONEWEB-0550","OBJECT_ID":"2023-043G","EPOCH":"2025-12-29T05:08:27.058848","MEAN_MOTION":13.21824632,"ECCENTRICITY":0.0001771,"INCLINATION":87.9225,"RA_OF_ASC_NODE":277.8851,"ARG_OF_PERICENTER":79.1431,"MEAN_ANOMALY":280.9903,"EPHEMERIS_TYPE":0,"CLASSIFICATION_TYPE":"U","NORAD_CAT_ID":56052,"ELEMENT_SET_NO":999,"REV_AT_EPOCH":13577,"BSTAR":2.2702e-5,"MEAN_MOTION_DOT":2.2e-7,"MEAN_MOTION_DDOT":0},{"OBJECT_NAME":"ONEWEB-0551","OBJECT_ID":"2023-043H","EPOCH":"2025-12-29T07:39:40.735872","MEAN_MOTION":13.15547314,"ECCENTRICITY":0.0001739,"INCLINATION":87.9005,"RA_OF_ASC_NODE":293.1318,"ARG_OF_PERICENTER":68.6465,"MEAN_ANOMALY":291.4851,"EPHEMERIS_TYPE":0,"CLASSIFICATION_TYPE":"U","NORAD_CAT_ID":56053,"ELEMENT_SET_NO":999,"REV_AT_EPOCH":13406,"BSTAR":-9.7623e-5,"MEAN_MOTION_DOT":-2.4e-7,"MEAN_MOTION_DDOT":0},{"OBJECT_NAME":"ONEWEB-0552","OBJECT_ID":"2023-043J","EPOCH":"2025-12-29T05:01:19.112736","MEAN_MOTION":13.21828482,"ECCENTRICITY":0.0001788,"INCLINATION":87.9225,"RA_OF_ASC_NODE":277.8948,"ARG_OF_PERICENTER":66.285,"MEAN_ANOMALY":293.8471,"EPHEMERIS_TYPE":0,"CLASSIFICATION_TYPE":"U","NORAD_CAT_ID":56054,"ELEMENT_SET_NO":999,"REV_AT_EPOCH":13577,"BSTAR":0.00024946,"MEAN_MOTION_DOT":1.16e-6,"MEAN_MOTION_DDOT":0},{"OBJECT_NAME":"ONEWEB-0553","OBJECT_ID":"2023-043K","EPOCH":"2025-12-29T04:14:28.785984","MEAN_MOTION":13.16592807,"ECCENTRICITY":0.00015683,"INCLINATION":87.9045,"RA_OF_ASC_NODE":262.6259,"ARG_OF_PERICENTER":87.7541,"MEAN_ANOMALY":272.377,"EPHEMERIS_TYPE":0,"CLASSIFICATION_TYPE":"U","NORAD_CAT_ID":56055,"ELEMENT_SET_NO":999,"REV_AT_EPOCH":13660,"BSTAR":0.00044969418,"MEAN_MOTION_DOT":1.85e-6,"MEAN_MOTION_DDOT":0},{"OBJECT_NAME":"ONEWEB-0554","OBJECT_ID":"2023-043L","EPOCH":"2025-12-29T02:06:49.202208","MEAN_MOTION":13.16593442,"ECCENTRICITY":0.00018533,"INCLINATION":87.9035,"RA_OF_ASC_NODE":262.656,"ARG_OF_PERICENTER":77.6616,"MEAN_ANOMALY":282.4722,"EPHEMERIS_TYPE":0,"CLASSIFICATION_TYPE":"U","NORAD_CAT_ID":56056,"ELEMENT_SET_NO":999,"REV_AT_EPOCH":13657,"BSTAR":0.00011756737,"MEAN_MOTION_DOT":5.8e-7,"MEAN_MOTION_DDOT":0},{"OBJECT_NAME":"ONEWEB-0555","OBJECT_ID":"2023-043M","EPOCH":"2025-12-29T06:40:24.364128","MEAN_MOTION":13.16593257,"ECCENTRICITY":0.0001521,"INCLINATION":87.9046,"RA_OF_ASC_NODE":262.6006,"ARG_OF_PERICENTER":94.3303,"MEAN_ANOMALY":265.8002,"EPHEMERIS_TYPE":0,"CLASSIFICATION_TYPE":"U","NORAD_CAT_ID":56057,"ELEMENT_SET_NO":999,"REV_AT_EPOCH":13660,"BSTAR":6.4338e-5,"MEAN_MOTION_DOT":3.7e-7,"MEAN_MOTION_DDOT":0},{"OBJECT_NAME":"ONEWEB-0557","OBJECT_ID":"2023-043N","EPOCH":"2025-12-29T05:11:29.608224","MEAN_MOTION":13.16592735,"ECCENTRICITY":0.0002636,"INCLINATION":87.9045,"RA_OF_ASC_NODE":262.6255,"ARG_OF_PERICENTER":97.6658,"MEAN_ANOMALY":262.4773,"EPHEMERIS_TYPE":0,"CLASSIFICATION_TYPE":"U","NORAD_CAT_ID":56058,"ELEMENT_SET_NO":999,"REV_AT_EPOCH":13659,"BSTAR":-7.3532e-5,"MEAN_MOTION_DOT":-1.5e-7,"MEAN_MOTION_DDOT":0},{"OBJECT_NAME":"ONEWEB-0558","OBJECT_ID":"2023-043P","EPOCH":"2025-12-29T06:40:52.514112","MEAN_MOTION":13.2182515,"ECCENTRICITY":0.0001402,"INCLINATION":87.9221,"RA_OF_ASC_NODE":277.8743,"ARG_OF_PERICENTER":59.109,"MEAN_ANOMALY":301.0181,"EPHEMERIS_TYPE":0,"CLASSIFICATION_TYPE":"U","NORAD_CAT_ID":56059,"ELEMENT_SET_NO":999,"REV_AT_EPOCH":13579,"BSTAR":0.00010786,"MEAN_MOTION_DOT":5.8e-7,"MEAN_MOTION_DDOT":0},{"OBJECT_NAME":"ONEWEB-0559","OBJECT_ID":"2023-043Q","EPOCH":"2025-12-29T06:24:16.235712","MEAN_MOTION":13.21825947,"ECCENTRICITY":0.0001728,"INCLINATION":87.9223,"RA_OF_ASC_NODE":277.8701,"ARG_OF_PERICENTER":65.5487,"MEAN_ANOMALY":294.5827,"EPHEMERIS_TYPE":0,"CLASSIFICATION_TYPE":"U","NORAD_CAT_ID":56060,"ELEMENT_SET_NO":999,"REV_AT_EPOCH":13580,"BSTAR":0.00030225,"MEAN_MOTION_DOT":1.38e-6,"MEAN_MOTION_DDOT":0},{"OBJECT_NAME":"ONEWEB-0566","OBJECT_ID":"2023-043R","EPOCH":"2025-12-29T06:14:47.671008","MEAN_MOTION":13.21826569,"ECCENTRICITY":0.0001618,"INCLINATION":87.9228,"RA_OF_ASC_NODE":277.8699,"ARG_OF_PERICENTER":64.866,"MEAN_ANOMALY":295.2641,"EPHEMERIS_TYPE":0,"CLASSIFICATION_TYPE":"U","NORAD_CAT_ID":56061,"ELEMENT_SET_NO":999,"REV_AT_EPOCH":13578,"BSTAR":0.00010008,"MEAN_MOTION_DOT":5.4e-7,"MEAN_MOTION_DDOT":0}]
